0 THOR ABLESTAR DEB
1 00235U 61015BT  13281.46784827  .00000635  00000-0  37073-3 0  2725
2 00235 066.9571 344.9493 0172310 216.4329 142.4935 14.07371167668918
0 THOR ABLESTAR DEB
1 00235U 61015BT  13282.53382702  .00000654  00000-0  38038-3 0  2734
2 00235 066.9570 342.2894 0172233 215.6662 143.2822 14.07374472669061
0 THOR ABLESTAR DEB
1 00235U 61015BT  13284.16832531  .00000582  00000-0  34313-3 0  2748
2 00235 066.9568 338.2108 0172115 214.4780 144.5050 14.07376933669294
0 THOR ABLESTAR DEB
1 00235U 61015BT  13285.44749626  .00000353  00000-0  22463-3 0  2752
2 00235 066.9567 335.0189 0172018 213.5507 145.4595 14.07378824669471
0 THOR ABLESTAR DEB
1 00235U 61015BT  13286.51347089  .00000232  00000-0  16138-3 0  2767
2 00235 066.9565 332.3591 0171935 212.7815 146.2515 14.07380594669621
0 THOR ABLESTAR DEB
1 00235U 61015BT  13287.65050901  .00000221  00000-0  15567-3 0  2771
2 00235 066.9562 329.5217 0171845 211.9441 147.1140 14.07383258669788
0 THOR ABLESTAR DEB
1 00235U 61015BT  13289.14286811  .00000163  00000-0  12591-3 0  2788
2 00235 066.9560 325.7977 0171721 210.8558 148.2352 14.07386580669998
0 THOR ABLESTAR DEB
1 00235U 61015BT  13290.49309457  .00000178  00000-0  13385-3 0  2799
2 00235 066.9558 322.4282 0171609 209.8539 149.2678 14.07387356670187
0 THOR ABLESTAR DEB
1 00235U 61015BT  13292.12757771  .00000250  00000-0  17097-3 0  2804
2 00235 066.9558 318.3493 0171475 208.6403 150.5187 14.07386653670418
0 THOR ABLESTAR DEB
1 00235U 61015BT  13293.47780238  .00000373  00000-0  23492-3 0  2810
2 00235 066.9557 314.9797 0171343 207.6446 151.5455 14.07386292670605
0 THOR ABLESTAR DEB
1 00235U 61015BT  13295.18334967  .00000527  00000-0  31524-3 0  2821
2 00235 066.9557 310.7236 0171189 206.3865 152.8432 14.07386607670841
